<?xml version="1.0" ?>
<kml xmlns="http://www.opengis.net/kml/2.2">
  <Document>
    <name>Activities Map</name>
    <description>Activity locations extracted from markdown files</description>
    <Placemark>
      <name>Wethersfield Estate &amp; Garden (Amenia)</name>
      <description>Wethersfield Estate &amp; Garden - Amenia
📍 257 Pugsley Hill Road
📞 (845) 373-8037
🌐 https://www.wethersfield.org/
🔗 https://www.instagram.com/p/DM_TuuUuN2R/
ℹ️ One of the most magical gardens in the Hudson Valley, Wethersfield Estate &amp; Garden is a 1,000-acre property featuring classical Italian-style gardens, wooded trails, mythological statues, and over 20 miles of paths. The estate offers panoramic views that stretch for miles and includes wildflowers,...</description>
      <Point>
        <coordinates>-73.6256092,41.8882096,0</coordinates>
      </Point>
    </Placemark>
    <Placemark>
      <name>Hessel Museum of Art (Annandale-on-Hudson)</name>
      <description>Hessel Museum of Art - Annandale-on-Hudson
📍 33 Garden Road, Annandale-on-Hudson, NY 12504
📞 (845) 758-7598
🌐 https://ccs.bard.edu/museum
🔗 https://www.instagram.com/p/DTxh5rcDRnY/?img_index=1
ℹ️ The CCS Hessel Museum of Art is an art museum located on the campus of Bard College in Annandale-on-Hudson, New York. The museum was built in 2006 and draws from the Marieluise Hessel Collection of Contemporary Art, which contains more than 1,700 objects on permanent loan to Bard. CCS Bard and the...</description>
      <Point>
        <coordinates>-73.9143773,42.0202897,0</coordinates>
      </Point>
    </Placemark>
    <Placemark>
      <name>NY Showplace Tag Sale (Astoria, Queens)</name>
      <description>NY Showplace Tag Sale - Astoria, Queens
📍 36-01 35th Street, Astoria, NY 11106
📞 (212) 633-6063
🌐 https://nyshowplace.com/pages/tag-sale
🔗 https://www.instagram.com/p/DMix1gdyuAN/
ℹ️ NY Showplace is an auction house and vintage/antique retailer. Their Astoria warehouse hosts a monthly Tag Sale on the **last weekend of every month** (Friday, Saturday, Sunday), featuring unsold items from their weekly estate auctions at significant discounts. The 24,000 sq ft warehouse is packed...</description>
      <Point>
        <coordinates>-73.9231,40.7593,0</coordinates>
      </Point>
    </Placemark>
    <Placemark>
      <name>The Skyscraper Museum (New York City)</name>
      <description>The Skyscraper Museum - New York City
📍 39 Battery Place, New York, NY 10280
📞 (212) 968-1961
🌐 https://www.skyscraper.org
🔗 https://www.instagram.com/p/DYfV0pRGUBQ/?img_index=1
ℹ️ Since 1996, the Skyscraper Museum has been dedicated to the architecture, engineering, science, and history behind tall buildings. Located in Battery Park City at the southern tip of Manhattan — fittingly amid the skyscrapers it celebrates — the museum features miniature building replicas, scale...</description>
      <Point>
        <coordinates>-74.017691,40.70575,0</coordinates>
      </Point>
    </Placemark>
    <Placemark>
      <name>Dia Beacon (Beacon)</name>
      <description>Dia Beacon - Beacon
📍 3 Beekman Street, Beacon, NY 12508
📞 (845) 440-0100
🌐 https://www.diaart.org/visit/visit-our-locations-sites/dia-beacon-beacon-united-states
🔗 https://www.instagram.com/p/DTxh5rcDRnY/?img_index=1
ℹ️ Dia Beacon is the museum for the Dia Art Foundation's collection of art from the 1960s to the present and is one of the 12 locations and sites they manage. The museum, which opened in 2003, is situated near the banks of the Hudson River in Beacon, New York in an enormous former Nabisco box factory....</description>
      <Point>
        <coordinates>-73.9826016,41.5001712,0</coordinates>
      </Point>
    </Placemark>
    <Placemark>
      <name>The KuBe Art Center (Beacon)</name>
      <description>The KuBe Art Center - Beacon
📍 211 Fishkill Ave, Beacon, NY 12508
📞 (845) 765-8270
🌐 https://kubeartcenter.org
🔗 https://www.instagram.com/p/DTxh5rcDRnY/?img_index=1
ℹ️ The KuBe (Kunsthalle Beacon) repurposes the site of a former high school as a space to promote international exchange of culture and art, as well as unite local and global artists in a community forum. With over 60 artist studios, 10 gallery spaces, and 2 libraries, KuBe is a thriving space that...</description>
      <Point>
        <coordinates>-73.964994,41.505818,0</coordinates>
      </Point>
    </Placemark>
    <Placemark>
      <name>Mount Beacon Fire Tower (Beacon, New York)</name>
      <description>Mount Beacon Fire Tower - Beacon, New York
📍 788 Wolcott Avenue, Beacon, NY 12508 (Casino trailhead)
📞 N/A
🌐 https://scenichudson.org/parks/mount-beacon-park/
🔗 https://observer.com/list/best-hikes-near-new-york-city-no-cars/
ℹ️ The hike up Mount Beacon follows a **200-step staircase** along the bed of the old **Mount Beacon Funicular**—the steepest incline railway in the world when it opened in 1902—and tops out at the restored **1931 fire tower**. The summit offers Manhattan to the south and the Catskills to the north on...</description>
      <Point>
        <coordinates>-73.9601812,41.4941963,0</coordinates>
      </Point>
    </Placemark>
    <Placemark>
      <name>Bear Mountain Loop (Bear Mountain, New York)</name>
      <description>Bear Mountain Loop - Bear Mountain, New York
📍 Bear Mountain Inn, 3020 Seven Lakes Drive, Tomkins Cove, NY 10986
📞 (845) 786-2731
🌐 https://visitbearmountain.com/
🔗 https://observer.com/list/best-hikes-near-new-york-city-no-cars/
ℹ️ Run the loop clockwise: up the **Major Welch Trail's** rock scrambles to **Perkins Memorial Tower** (1934; panoramic on clear days to the Manhattan skyline and four states), then down the engineered **Appalachian Trail stone staircase**—more than 700 hand-laid steps that are the most ambitious...</description>
      <Point>
        <coordinates>-73.9898017,41.3130775,0</coordinates>
      </Point>
    </Placemark>
    <Placemark>
      <name>BakeDeco (Kerekes Bakery &amp; Restaurant Equipment) (Brooklyn)</name>
      <description>BakeDeco (Kerekes Bakery &amp; Restaurant Equipment) - Brooklyn
📍 6103 15th Avenue, Brooklyn, NY 11219
📞 (718) 232-7044
🌐 https://www.bakedeco.com
🔗 https://www.instagram.com/p/DS6ALyCkXqW/
ℹ️ BakeDeco, also known as Kerekes Bakery &amp; Restaurant Equipment, is a comprehensive distributor of restaurant supplies and equipment for every food service establishment. They feature a full line of high-quality pastry and bakery supplies, commercial kitchen equipment (both new and used), baking...</description>
      <Point>
        <coordinates>-73.9949171,40.6252439,0</coordinates>
      </Point>
    </Placemark>
    <Placemark>
      <name>Bronx River Greenway (The Bronx)</name>
      <description>Bronx River Greenway - The Bronx
📍 Starts at 241st Street (5 train terminus)
📞 N/A
🌐 http://bronxriver.org/puma/images/usersubmitted/file/Get%20Moving%20on%20the%20Bronx%20River%20-%202016%20Activity%20Guide.pdf
🔗 https://www.nytimes.com/interactive/2019/08/14/nyregion/hiking-nyc.html
ℹ️ An eight-mile trail that begins at 241st Street, the last stop on the 5 train, offering access to the city's only freshwater river. The Bronx River has been recently restored and is popular with kayakers. The meandering path provides easy access to the river and offers multiple route options...</description>
      <Point>
        <coordinates>-73.8703488,40.8466023,0</coordinates>
      </Point>
    </Placemark>
    <Placemark>
      <name>Kazimiroff Nature Trail (Pelham Bay Park)</name>
      <description>Kazimiroff Nature Trail - Pelham Bay Park
📍 Hunter Island, Pelham Bay Park
📞 (718) 430-1891 (Pelham Bay Park Administrator's Office)
🌐 https://www.nycgovparks.org/parks/pelham-bay-park/highlights/11915
🔗 https://www.nycgovparks.org/parks/pelham-bay-park/highlights/11915
ℹ️ The Kazimiroff Nature Trail honors Dr. Theodore Kazimiroff (1914-1980), a dentist by profession who is most remembered for his dedication to the fight for the protection of the delicate ecosystems that still thrive in the Bronx. Born in the Bronx on May 22, 1914, Kazimiroff graduated from Manhattan...</description>
      <Point>
        <coordinates>-73.827938,40.852548,0</coordinates>
      </Point>
    </Placemark>
    <Placemark>
      <name>Underground Thrift Store (Brooklyn Heights, Brooklyn)</name>
      <description>Underground Thrift Store - Brooklyn Heights, Brooklyn
📍 65 Hicks St, Brooklyn, NY 11201
📞 (718) 624-4743
🌐 https://www.plymouthchurch.org/undergroundthriftstore
🔗 https://www.instagram.com/p/DVpNIIvifJI/
ℹ️ The Underground Thrift Store is located at Plymouth Church in Brooklyn Heights. It offers designer clothing (men's and women's), quality children's wear, fabulous shoes and accessories, plus high-end housewares, glassware, books, and decor. The store is volunteer-run and curated with high-quality...</description>
      <Point>
        <coordinates>-73.9935289,40.6995079,0</coordinates>
      </Point>
    </Placemark>
    <Placemark>
      <name>Highland Park to Forest Park Trail (Brooklyn/Queens)</name>
      <description>Highland Park to Forest Park Trail - Brooklyn/Queens
📍 Accessible via J train at Cleveland Street
📞 N/A
🌐 http://forestparktrust.org/parks/highland-park/
🔗 https://www.nytimes.com/interactive/2019/08/14/nyregion/hiking-nyc.html
ℹ️ This segment of the Brooklyn-Queens Greenway connects Highland Park to Forest Park through 10 miles of trail alongside kettle pools and through wild fields. Cemeteries and tangled parkland demarcate eastern Brooklyn and central Queens, offering an excellent retreat for urban hikers. The moderate...</description>
      <Point>
        <coordinates>-73.8877422,40.6871747,0</coordinates>
      </Point>
    </Placemark>
    <Placemark>
      <name>Yesterday's News (Vintage Shop NYC - Carroll Gardens)</name>
      <description>Yesterday's News - Vintage Shop NYC - Carroll Gardens
📍 428 Court Street, Brooklyn, NY 11231
📞 Not listed
🌐 http://www.yesterdaysnews.biz/
🔗 https://www.instagram.com/reel/DS387lujiin
ℹ️ Yesterday's News is a beloved vintage shop in Carroll Gardens, Brooklyn, specializing in mid-century modern furniture, vintage housewares, and collectibles. The shop features an ever-changing inventory of carefully curated vintage items from the 1840s to the 1980s, including furniture (deco...</description>
      <Point>
        <coordinates>-73.9975109,40.679359,0</coordinates>
      </Point>
    </Placemark>
    <Placemark>
      <name>Poster House (New York City)</name>
      <description>Poster House - New York City
📍 119 West 23rd Street, New York, NY 10011
📞 (917) 722-2439
🌐 https://posterhouse.org
🔗 https://www.instagram.com/p/DYfV0pRGUBQ/?img_index=1
ℹ️ Poster House is the first U.S. museum dedicated exclusively to the art of the poster, examining its cultural and historical significance from the late 19th century to the present day. Opened in 2019, the museum's rotating exhibitions explore everything from political movements, AIDS activism, and...</description>
      <Point>
        <coordinates>-73.9933365,40.7435881,0</coordinates>
      </Point>
    </Placemark>
    <Placemark>
      <name>Salvation Army Thrift Store (Chelsea)</name>
      <description>Salvation Army Thrift Store - Chelsea
📍 208 8th Avenue, New York, NY 10011
📞 (212) 929-4618
🌐 https://www.salvationarmyusa.org
🔗 https://www.instagram.com/p/DSAroIJDpLu/
ℹ️ Salvation Army thrift store located in Chelsea near the corner of W 21st St and 8th Ave. Featured by @codey___ in his list of top Salvation Army thrift stores in Manhattan. Carries clothing, furniture, home goods, and accessories at thrift prices.</description>
      <Point>
        <coordinates>-73.9993,40.7437,0</coordinates>
      </Point>
    </Placemark>
    <Placemark>
      <name>NROCKS Via Ferrata (Circleville, West Virginia)</name>
      <description>NROCKS Via Ferrata - Circleville, West Virginia
📍 141 Nelson Gap Road, Circleville, WV 26804
📞 (540) 437-9901
🌐 https://nrocks.com/via-ferrata/
🔗 https://www.instagram.com/p/DUQ60lciSy3/
ℹ️ NROCKS Outdoor Adventures operates one of the only via ferratas on the East Coast and the longest one east of the Mississippi. Italian for &quot;by way of iron,&quot; a via ferrata is a permanently installed system of steel rungs and cables that allows participants to climb up and over towering sandstone...</description>
      <Point>
        <coordinates>-79.4721024,38.7005593,0</coordinates>
      </Point>
    </Placemark>
    <Placemark>
      <name>Visible Voice Books (Cleveland, OH)</name>
      <description>Visible Voice Books - Cleveland, OH
📍 4601 Lorain Ave, Cleveland, OH 44102
📞 216-961-0084
🌐 https://www.visiblevoicebooks.com
🔗 https://www.instagram.com/p/DWMAkmCjD6W/?img_index=5
ℹ️ Visible Voice Books is a nearly 20-year-old independent bookstore founded by owner Dave Ferrante. The shop features a curated mix of new and used books with a focus on modern fiction, counterculture, poetry, and collectible art and music titles. Originally located in Cleveland's Tremont...</description>
      <Point>
        <coordinates>-81.7182443,41.4785354,0</coordinates>
      </Point>
    </Placemark>
    <Placemark>
      <name>Bull Hill (Mount Taurus) (Cold Spring, New York)</name>
      <description>Bull Hill (Mount Taurus) - Cold Spring, New York
📍 Little Stony Point, Route 9D, Cold Spring, NY 10516
📞 N/A
🌐 https://parks.ny.gov/parks/hudsonhighlands
🔗 https://observer.com/list/best-hikes-near-new-york-city-no-cars/
ℹ️ With Breakneck Ridge closed through 2026, Bull Hill is what New York State Parks and the Fjord Trail are now steering everyone toward—the argument being it was the better ridge anyway: more rewarding, no notorious scrambles, same minutes on the train. The full loop runs 5.5 miles and 1,400 feet up...</description>
      <Point>
        <coordinates>-73.9650901,41.4259948,0</coordinates>
      </Point>
    </Placemark>
    <Placemark>
      <name>Cold Spring Harbor State Park (Long Island, New York)</name>
      <description>Cold Spring Harbor State Park - Long Island, New York
📍 Route 25A / Harbor Road, Cold Spring Harbor, NY 11724
📞 (631) 423-1770 (NY State Parks, Long Island Region)
🌐 https://parks.ny.gov/parks/coldspringharbor
🔗 https://www.nationalgeographic.com/travel/article/new-york-city-train-to-hiking-trails
ℹ️ Featured in National Geographic's &quot;6 spectacular hikes near New York City—and you can reach them by train&quot; (by Lina Zeldovich). Cold Spring Harbor State Park is a 47-acre state park on Long Island's North Shore with two moderate trails winding through dense forest. It connects to the Long Island...</description>
      <Point>
        <coordinates>-73.4592824,40.8632136,0</coordinates>
      </Point>
    </Placemark>
    <Placemark>
      <name>Hudson Highlands State Park Preserve (Cold Spring, New York)</name>
      <description>Hudson Highlands State Park Preserve - Cold Spring, New York
📍 Route 9D, Cold Spring, NY 10516 (multiple trailheads along 9D)
📞 (845) 225-7207 (NY State Parks, Taconic Region)
🌐 https://parks.ny.gov/parks/hudsonhighlands
🔗 https://www.nationalgeographic.com/travel/article/new-york-city-train-to-hiking-trails
ℹ️ Featured in National Geographic's &quot;6 spectacular hikes near New York City—and you can reach them by train&quot; (by Lina Zeldovich). Hudson Highlands State Park Preserve is a rugged, undeveloped preserve on the east side of the Hudson River known for steep climbs and panoramic river views. The article...</description>
      <Point>
        <coordinates>-73.9499107,41.4772251,0</coordinates>
      </Point>
    </Placemark>
    <Placemark>
      <name>Little Stony Point (Cold Spring, New York)</name>
      <description>Little Stony Point - Cold Spring, New York
📍 3011 Route 9D, Cold Spring, NY 10516
📞 (845) 225-7207 (NY State Parks, Taconic Region)
🌐 https://littlestonypoint.org
🔗 https://www.nationalgeographic.com/travel/article/new-york-city-train-to-hiking-trails
ℹ️ Mentioned in National Geographic's &quot;6 spectacular hikes near New York City—and you can reach them by train&quot; (by Lina Zeldovich) as an easy option alongside the Hudson Highlands hikes. Little Stony Point is a small peninsula jutting into the Hudson River just north of Cold Spring village. Its **easy...</description>
      <Point>
        <coordinates>-73.9650901,41.4259948,0</coordinates>
      </Point>
    </Placemark>
    <Placemark>
      <name>Magazzino Italian Art (Cold Spring)</name>
      <description>Magazzino Italian Art - Cold Spring
📍 2700 Route 9, Cold Spring, NY 10516
📞 (845) 666-7202
🌐 https://www.magazzino.art
🔗 https://www.instagram.com/p/DTxh5rcDRnY/?img_index=1
ℹ️ Magazzino Italian Art is a museum and research center dedicated to advancing scholarship and public appreciation of postwar and contemporary Italian art in the United States. Meaning &quot;warehouse&quot; in Italian, Magazzino was co-founded by Nancy Olnick and Giorgio Spanu. The 20,000 square-foot museum,...</description>
      <Point>
        <coordinates>-73.9148517,41.429881,0</coordinates>
      </Point>
    </Placemark>
    <Placemark>
      <name>Cold Spring Waterfront and Boscobel (Cold Spring, New York)</name>
      <description>Cold Spring Waterfront and Boscobel - Cold Spring, New York
📍 1601 Route 9D, Garrison, NY 10524
📞 (845) 265-3638
🌐 https://www.boscobel.org/
🔗 https://observer.com/list/best-hikes-near-new-york-city-no-cars/
ℹ️ This is a gentle riverfront walk paired with a historic mansion. **Boscobel**, an 1808 Federal-style house overlooking West Point, reopened in August 2025 after a 17-month closure that began when its library ceiling came down in April 2024. The new **&quot;Preservation in Progress&quot; tours** walk guests...</description>
      <Point>
        <coordinates>-73.9474557,41.3699231,0</coordinates>
      </Point>
    </Placemark>
    <Placemark>
      <name>Storm King State Park (Cornwall-on-Hudson, New York)</name>
      <description>Storm King State Park - Cornwall-on-Hudson, New York
📍 Storm King State Park, Cornwall-on-Hudson, NY 12520
📞 (845) 786-2701 (Palisades Interstate Park Commission, NY)
🌐 https://parks.ny.gov/parks/stormking
🔗 https://www.nationalgeographic.com/travel/article/new-york-city-train-to-hiking-trails
ℹ️ Featured in National Geographic's &quot;6 spectacular hikes near New York City—and you can reach them by train&quot; (by Lina Zeldovich). Storm King State Park sits on the west side of the Hudson Highlands and is known for dramatic, panoramic river views. Highlights include the **Highland Trail** (about 5...</description>
      <Point>
        <coordinates>-73.9929715,41.4246342,0</coordinates>
      </Point>
    </Placemark>
    <Placemark>
      <name>Croton Gorge Park (Cortlandt, Westchester County, NY)</name>
      <description>Croton Gorge Park - Cortlandt, Westchester County, NY
📍 35 Yorktown Road (Route 129), Cortlandt, NY 10520
📞 +1 914-862-5290 (Westchester County Parks)
🌐 https://parks.westchestergov.com/croton-gorge-park
🔗 https://www.instagram.com/p/DYTKdadNacp/
ℹ️ Croton Gorge Park is a 97-acre Westchester County park set at the base of the New Croton Dam, about an hour north of New York City in the Hudson Valley. Featured by @goloveny as a &quot;scenic day trip just 1 hour north of NYC,&quot; it's a popular easy escape known for its dramatic views of the masonry dam...</description>
      <Point>
        <coordinates>-73.8531213,41.2217974,0</coordinates>
      </Point>
    </Placemark>
    <Placemark>
      <name>Brooklyn Seltzer Museum (New York City)</name>
      <description>Brooklyn Seltzer Museum - New York City
📍 474 Hemlock Street, Brooklyn, NY 11208
📞 (718) 437-7782
🌐 https://www.brooklynseltzermuseum.com
🔗 https://www.instagram.com/p/DYfV0pRGUBQ/?img_index=1
ℹ️ The family-owned Brooklyn Seltzer Museum and factory gives visitors a peek into the science and history of carbonated refreshment. Run by the Gomberg family — longtime seltzer bottlers behind Brooklyn Seltzer Boys — the museum showcases the heritage of New York's beloved fizzy water, including...</description>
      <Point>
        <coordinates>-73.8698351,40.6777636,0</coordinates>
      </Point>
    </Placemark>
    <Placemark>
      <name>New York Transit Museum (Downtown Brooklyn)</name>
      <description>New York Transit Museum - Downtown Brooklyn
📍 99 Schermerhorn Street, Brooklyn, NY 11201
📞 (718) 694-1600
🌐 https://www.nytransitmuseum.org/
🔗 https://www.instagram.com/p/DVL38qyDfqY/
ℹ️ The New York Transit Museum is the largest museum in the United States devoted to urban public transportation history. Housed in a historic 1936 IND subway station in Downtown Brooklyn, the museum features vintage subway cars, bus exhibits, and interactive displays covering the history of NYC's...</description>
      <Point>
        <coordinates>-73.99,40.6905,0</coordinates>
      </Point>
    </Placemark>
    <Placemark>
      <name>Gizmo Sewing Supplies (East Village)</name>
      <description>Gizmo Sewing Supplies - East Village
📍 626 East 14th Street, New York, NY 10009
📞 (212) 477-2773
🔗 https://www.instagram.com/reel/DS387lujiin
ℹ️ Gizmo Sewing Supplies (also known as Gizmo Notion) is a comprehensive sewing supplies shop in the East Village offering sales and repairs for all kinds of sewing machines, along with an extensive selection of buttons, trimmings, and sewing accessories. The shop carries quilting fabrics, knitting...</description>
      <Point>
        <coordinates>-73.9769694,40.7286867,0</coordinates>
      </Point>
    </Placemark>
    <Placemark>
      <name>Secondhand Ranch (Philadelphia)</name>
      <description>Secondhand Ranch - Philadelphia
📍 1148 Frankford Ave, Philadelphia, PA 19125
📞 (267) 807-1340
🌐 https://www.secondhandranch.com
🔗 https://www.instagram.com/p/DS0UeeyCYtQ/
ℹ️ Secondhand Ranch is a honky-tonk dive bar combined with a vintage thrift shop in Fishtown - where &quot;clothes, cocktails, and honky-tonk collide.&quot; The concept originated in Denver in 2020 when founder Josh Sampson opened Garage Sale Vintage. Sampson describes it as &quot;a love letter to the circular...</description>
      <Point>
        <coordinates>-75.1346839,39.9684765,0</coordinates>
      </Point>
    </Placemark>
    <Placemark>
      <name>East Coast Trimming Corp. (Garment District)</name>
      <description>East Coast Trimming Corp. - Garment District
📍 142 W 38th St, New York, NY 10018
📞 (212) 221-0050
🌐 http://eastcoasttrimming.com/
🔗 https://www.instagram.com/reel/DS387lujiin
ℹ️ East Coast Trimming Corp. is the home of Hyman Hendler Ribbon, a historic ribbon and trimming supplier located in NYC's garment district. The shop specializes in vintage ribbons, buttons, trimmings, and sewing notions. They maintain an extensive warehouse of vintage items dating back to the early...</description>
      <Point>
        <coordinates>-73.9879708,40.753064,0</coordinates>
      </Point>
    </Placemark>
    <Placemark>
      <name>Lauren Trimming, Inc. (Garment District)</name>
      <description>Lauren Trimming, Inc. - Garment District
📍 247 West 37th St, New York, NY 10018
📞 (646) 964-5734
🔗 https://www.instagram.com/reel/DS387lujiin
ℹ️ Lauren Trimming, Inc. is a design and fashion supplier located in NYC's garment district, specializing in buttons, trimmings, and sewing notions for fashion designers and crafters. The shop serves the professional garment industry as well as individual customers, offering a curated selection of...</description>
      <Point>
        <coordinates>-73.9912286,40.7539855,0</coordinates>
      </Point>
    </Placemark>
    <Placemark>
      <name>Lou Lou Buttons (Garment District)</name>
      <description>Lou Lou Buttons - Garment District
📍 71 West 38th Street
📞 (212) 398-5498
🌐 https://www.louloubuttons.com
🔗 https://www.instagram.com/loulou_buttons/tagged/
ℹ️ Lou Lou Buttons bills itself as &quot;New York's Best Kept Secret Now Online&quot; and claims to be the &quot;Largest Online Buttons Store in the World&quot; with over 10 million buttons in stock. Located in NYC's historic garment district, this specialty button shop has been serving fashion designers, costume...</description>
      <Point>
        <coordinates>-73.9849126,40.7519753,0</coordinates>
      </Point>
    </Placemark>
    <Placemark>
      <name>Art Omi (Ghent)</name>
      <description>Art Omi - Ghent
📍 1405 County Route 22, Ghent, NY 12075
📞 (518) 392-4747
🌐 https://artomi.org
🔗 https://www.instagram.com/p/DTxh5rcDRnY/?img_index=1
ℹ️ Art Omi is an arts center situated on 120 acres in New York's Hudson Valley, featuring the Sculpture &amp; Architecture Park, Newmark Gallery, five distinct residency programs, and arts education for all ages. The Sculpture &amp; Architecture Park currently has more than 60 works on view in the landscape,...</description>
      <Point>
        <coordinates>-73.6766147,42.3334296,0</coordinates>
      </Point>
    </Placemark>
    <Placemark>
      <name>Salvation Army Thrift Store (Gramercy)</name>
      <description>Salvation Army Thrift Store - Gramercy
📍 208 E 23rd Street, New York, NY 10010
📞 (212) 532-8115
🌐 https://www.salvationarmyusa.org
🔗 https://www.instagram.com/p/DSAroIJDpLu/
ℹ️ One of the larger and more well-known Salvation Army Family Stores in Manhattan, located near Gramercy Park. Featured by @codey___ in his list of top Salvation Army thrift stores in Manhattan. Carries clothing, furniture, home goods, and accessories at thrift prices.</description>
      <Point>
        <coordinates>-73.9826,40.7384,0</coordinates>
      </Point>
    </Placemark>
    <Placemark>
      <name>Leaves Bookstore (Greenpoint, Brooklyn)</name>
      <description>Leaves Bookstore - Greenpoint, Brooklyn
📍 140 Nassau Ave, Brooklyn, NY 11222
📞 (518) 406-7637
🌐 https://www.leavesbookstore.com
🔗 https://www.instagram.com/p/DVgkCm7DUex/?img_index=9
ℹ️ Leaves is an independent, second-hand bookstore committed to community, sustainability, and affordability. They carry books of all genres, ranging in price from one dollar to many thousands. The Greenpoint storefront is home to a wide range of materials including discount books and reading copies....</description>
      <Point>
        <coordinates>-73.9477321,40.7246271,0</coordinates>
      </Point>
    </Placemark>
    <Placemark>
      <name>Sleeping Giant Tower Trail (Hamden, Connecticut)</name>
      <description>Sleeping Giant Tower Trail - Hamden, Connecticut
📍 3230 Mount Carmel Avenue, Hamden, CT 06518
📞 (203) 287-5658
🌐 https://portal.ct.gov/deep/state-parks/parks/sleeping-giant-state-park
🔗 https://observer.com/list/best-hikes-near-new-york-city-no-cars/
ℹ️ The crushed-stone **Tower Trail** switchbacks 1.6 miles up the Giant's &quot;left hip&quot; to a four-story stone observation tower with a vantage point all the way to Long Island Sound. The blue-blazed **Quinnipiac loop** adds a real scramble up the Giant's &quot;head&quot; and 400-foot cliff overlooks for a five- to...</description>
      <Point>
        <coordinates>-72.9013809,41.4203514,0</coordinates>
      </Point>
    </Placemark>
    <Placemark>
      <name>Salvation Army Thrift Store (Harlem)</name>
      <description>Salvation Army Thrift Store - Harlem
📍 26 E 125th Street, New York, NY 10035
📞 (212) 996-0378
🌐 https://www.salvationarmyusa.org
🔗 https://www.instagram.com/p/DSAroIJDpLu/
ℹ️ Salvation Army thrift store and donation center in central Harlem, near the Metro-North station. Featured by @codey___ in his list of top Salvation Army thrift stores in Manhattan. Carries clothing, furniture, home goods, and accessories at thrift prices. One commenter (jan071974) noted: &quot;I love...</description>
      <Point>
        <coordinates>-73.9412,40.8057,0</coordinates>
      </Point>
    </Placemark>
    <Placemark>
      <name>Salvation Army Thrift Store (Hell's Kitchen)</name>
      <description>Salvation Army Thrift Store - Hell's Kitchen
📍 536 W 46th Street, New York, NY 10036
📞 (800) 728-7825
🌐 https://www.salvationarmyusa.org
🔗 https://www.instagram.com/p/DSAroIJDpLu/
ℹ️ Two-floor Salvation Army thrift store and donation center in Hell's Kitchen. One floor is dedicated to clothing and the other to furniture and home goods. Featured by @codey___ as potentially &quot;the biggest thrift in all of New York&quot; and his favorite &quot;REAL thrift store in New York City.&quot; This is a...</description>
      <Point>
        <coordinates>-73.9954,40.7627,0</coordinates>
      </Point>
    </Placemark>
    <Placemark>
      <name>Franny Reese State Park (Highland, New York)</name>
      <description>Franny Reese State Park - Highland, New York
📍 Franny Reese State Park, Highland, NY 12528 (trailhead off Haviland Road, near the Walkway Over the Hudson west end)
📞 (845) 473-4440 (Scenic Hudson / NY State Parks)
🌐 https://parks.ny.gov/parks/frannyreese
🔗 https://www.nationalgeographic.com/travel/article/new-york-city-train-to-hiking-trails
ℹ️ Featured in National Geographic's &quot;6 spectacular hikes near New York City—and you can reach them by train&quot; (by Lina Zeldovich). Franny Reese State Park is a quiet, wooded preserve on the west bank of the Hudson, directly accessible by walking across the Walkway Over the Hudson from Poughkeepsie....</description>
      <Point>
        <coordinates>-73.9566575,41.699472,0</coordinates>
      </Point>
    </Placemark>
    <Placemark>
      <name>Fishkill Farms (Hopewell Junction, NY)</name>
      <description>Fishkill Farms - Hopewell Junction, NY
📍 9 Fishkill Farm Road, Hopewell Junction, NY 12533
📞 845-897-4377
🌐 https://www.fishkillfarms.com/
🔗 https://www.instagram.com/p/DNgxhXOu__u/?img_index=1
ℹ️ Fishkill Farms is a 270-acre apple orchard and vegetable farm that has been in the Morgenthau family for over 100 years. They specialize in certified organic vegetables and eco-certified fruit, offering both pick-your-own experiences and a well-stocked farm store with local artisanal products.</description>
      <Point>
        <coordinates>-73.8106688,41.5810881,0</coordinates>
      </Point>
    </Placemark>
    <Placemark>
      <name>Robert H. Treman State Park (Ithaca)</name>
      <description>Robert H. Treman State Park - Ithaca
📍 105 Enfield Falls Rd, Ithaca, NY 14850
📞 607-273-3440
🌐 https://parks.ny.gov/parks/roberttreman/
🔗 https://www.instagram.com/p/DSySpDqjXwq/
ℹ️ Robert H. Treman State Park is a stunning 1,025-acre state park located in the Finger Lakes region along Enfield Creek. The park features dramatic gorges, multiple waterfalls, and scenic hiking trails through Enfield Glen.</description>
      <Point>
        <coordinates>-76.5480673,42.4026424,0</coordinates>
      </Point>
    </Placemark>
    <Placemark>
      <name>Katonah Museum of Art (Katonah)</name>
      <description>Katonah Museum of Art - Katonah
📍 134 Jay Street (Route 22), Katonah, NY 10536
📞 (914) 232-9555
🌐 https://katonahmuseum.org
🔗 https://www.instagram.com/p/DTxh5rcDRnY/?img_index=1
ℹ️ The Katonah Museum of Art (KMA) is a non-collecting institution recognized for its innovative exhibition and education initiatives. It is housed in a modernist building designed by architect Edward Larrabee Barnes and was established in 1954.</description>
      <Point>
        <coordinates>-73.6732798,41.2627467,0</coordinates>
      </Point>
    </Placemark>
    <Placemark>
      <name>Jack Shainman | The School (Kinderhook)</name>
      <description>Jack Shainman | The School - Kinderhook
📍 25 Broad Street, Kinderhook, NY 12106
📞 (518) 758-1628
🌐 https://jackshainman.com/the_school
🔗 https://www.instagram.com/p/DTxh5rcDRnY/?img_index=1
ℹ️ The School is a 30,000-square-foot former high school in Kinderhook, NY. It was founded in 2013 with the mission of presenting ambitious, large-scale exhibitions that shed new light on artists working both within and outside of Jack Shainman Gallery's program. The space allows for monumental...</description>
      <Point>
        <coordinates>-73.7013437,42.3929487,0</coordinates>
      </Point>
    </Placemark>
    <Placemark>
      <name>American Folk Art Museum (Lincoln Square, Manhattan)</name>
      <description>American Folk Art Museum - Lincoln Square, Manhattan
📍 2 Lincoln Square, Columbus Avenue at 66th Street, New York, NY 10023
📞 (212) 595-9533
🌐 https://folkartmuseum.org/
🔗 https://www.instagram.com/p/DVL38qyDfqY/
ℹ️ The American Folk Art Museum is dedicated to presenting American folk art, including traditional and contemporary folk art from various cultures and time periods. The museum features rotating exhibitions and a permanent collection spanning centuries of American creative expression. Featured in a...</description>
      <Point>
        <coordinates>-73.9844,40.7723,0</coordinates>
      </Point>
    </Placemark>
    <Placemark>
      <name>SculptureCenter (Long Island City, Queens)</name>
      <description>SculptureCenter - Long Island City, Queens
📍 44-19 Purves Street, Long Island City, NY 11101
📞 (718) 361-1750
🌐 https://www.sculpture-center.org/
🔗 https://www.instagram.com/p/DVL38qyDfqY/
ℹ️ SculptureCenter is an independent, non-profit contemporary art museum housed in a converted trolley repair shop in Long Island City. The space showcases cutting-edge sculpture and installation art exhibitions. Featured in a list of lesser-known NYC museums by @caityb as museum #1 of 6...</description>
      <Point>
        <coordinates>-73.9409,40.7469,0</coordinates>
      </Point>
    </Placemark>
    <Placemark>
      <name>Army &amp; Navy Bags (New York City)</name>
      <description>Army &amp; Navy Bags - New York City
📍 177 E Houston St #2, New York, NY 10002
📞 212-228-5267
🌐 https://armynavybags.wordpress.com/
🔗 https://www.instagram.com/p/DTWKvUWDZcq/
ℹ️ Army &amp; Navy Bags is a beloved military surplus store that has been operating for over 60 years, first established in 1956 by a Polish couple. When they were ready to retire, they gifted the store to their loyal long-term employee, Henry Yao, who has been the sole owner and operator since 1997.</description>
      <Point>
        <coordinates>-73.988366,40.7226194,0</coordinates>
      </Point>
    </Placemark>
    <Placemark>
      <name>International Center of Photography (ICP) (Lower East Side, Manhattan)</name>
      <description>International Center of Photography (ICP) - Lower East Side, Manhattan
📍 84 Ludlow Street, New York, NY 10002
📞 (212) 857-0000
🌐 https://www.icp.org/
🔗 https://www.instagram.com/p/DVL38qyDfqY/
ℹ️ The International Center of Photography is a leading international museum and school dedicated to photography and visual culture. ICP offers exhibitions featuring photography from around the world and educational programs. Timed entry tickets can be reserved online or purchased at the admission...</description>
      <Point>
        <coordinates>-73.9889,40.7182,0</coordinates>
      </Point>
    </Placemark>
    <Placemark>
      <name>The Giraffe Path (Manhattan)</name>
      <description>The Giraffe Path - Manhattan
📍 Starts at 110th Street-Cathedral Parkway (B/C train)
📞 N/A
🌐 https://docs.google.com/viewer?a=v&amp;pid=sites&amp;srcid=ZGVmYXVsdGRvbWFpbnxoaWtldGhlaGVpZ2h0c3xneDoxMjgxZWY3ZjEwMDUyNTcz
🔗 https://www.nytimes.com/interactive/2019/08/14/nyregion/hiking-nyc.html
ℹ️ The Giraffe Path offers Manhattan's only remaining natural forest, featuring hillside scrambles and saltwater marshes. This unofficial but well-documented 6-mile trail leads from the northern edge of Central Park to unexpected heights, capturing a true cross-section of the city. The path climbs...</description>
      <Point>
        <coordinates>-73.9667672,40.8042748,0</coordinates>
      </Point>
    </Placemark>
    <Placemark>
      <name>Anthony's Nose (Manitou, New York)</name>
      <description>Anthony's Nose - Manitou, New York
📍 South Mountain Pass at Route 9D, Garrison, NY 10524
📞 N/A
🌐 https://parks.ny.gov/parks/hudsonhighlands
🔗 https://observer.com/list/best-hikes-near-new-york-city-no-cars/
ℹ️ A steep climb on stone steps lands you at a cliff that frames the **Bear Mountain Bridge** directly below. Peregrines nest on the bridge itself in spring, and the air is the cleanest of the year. Note: the **New York Bridge Authority began decking replacement in 2026**, so you'll be staring down at...</description>
      <Point>
        <coordinates>-73.9746625,41.3183195,0</coordinates>
      </Point>
    </Placemark>
    <Placemark>
      <name>The AKC Museum of the Dog (New York City)</name>
      <description>The AKC Museum of the Dog - New York City
📍 101 Park Avenue, New York, NY 10016
📞 (212) 696-8360
🌐 https://www.museumofthedog.org
🔗 https://www.instagram.com/p/DYfV0pRGUBQ/?img_index=1
ℹ️ The American Kennel Club opened the Museum of the Dog in 2019 at the AKC headquarters near Grand Central. Inside, you'll find classical and contemporary art honoring man's best friend, alongside interactive exhibits that are fun for kids and adult canine enthusiasts alike. The collection is one of...</description>
      <Point>
        <coordinates>-73.9775762,40.7506105,0</coordinates>
      </Point>
    </Placemark>
    <Placemark>
      <name>BOOKOFF New York (Midtown, Manhattan)</name>
      <description>BOOKOFF New York - Midtown, Manhattan
📍 49 West 45th St, New York, NY 10036
📞 (212) 685-1410
🌐 https://www.bookoffusa.com/bookoff-49-w-45th-ny-store/
🔗 https://www.instagram.com/p/DVgkCm7DUex/?img_index=9
ℹ️ BOOKOFF is a Japanese chain specializing in used books, manga, CDs, DVDs, video games, and other media. The New York Midtown location is their US flagship. They buy and sell secondhand media at affordable prices. As of September 2025, they stopped buying Japanese books at this location but continue...</description>
      <Point>
        <coordinates>-73.9813442,40.7564355,0</coordinates>
      </Point>
    </Placemark>
    <Placemark>
      <name>The Grolier Club (Midtown East, Manhattan)</name>
      <description>The Grolier Club - Midtown East, Manhattan
📍 47 East 60th Street, New York, NY 10065 (between Park and Madison Avenues)
📞 (212) 838-6690
🌐 https://www.grolierclub.org/
🔗 https://www.instagram.com/p/DVL38qyDfqY/
ℹ️ The Grolier Club is a historic private club dedicated to the arts of the book and related subjects. Its ground floor and second floor galleries are open to the public and feature rotating exhibitions on bookmaking, typography, illustration, and related arts. Visitors must sign in at the front desk;...</description>
      <Point>
        <coordinates>-73.9698,40.764,0</coordinates>
      </Point>
    </Placemark>
    <Placemark>
      <name>Tomi Jazz (New York City)</name>
      <description>Tomi Jazz - New York City
📍 239 E 53rd Street (Between 2nd &amp; 3rd Avenue)
📞 (646) 497-1254
🌐 https://www.tomijazz.com/
🔗 https://www.instagram.com/tomijazznewyork_official
ℹ️ Tomi Jazz is a cozy speakeasy-style Japanese jazz bar and restaurant in Midtown East. This intimate venue combines live jazz performances with authentic Japanese cuisine and a wide variety of whiskey and sake. Known for its intimate atmosphere and nightly live jazz bands, Tomi Jazz has become a...</description>
      <Point>
        <coordinates>-73.9677693,40.7572284,0</coordinates>
      </Point>
    </Placemark>
    <Placemark>
      <name>Hemlock Falls (South Mountain Reservation, New Jersey)</name>
      <description>Hemlock Falls - South Mountain Reservation, New Jersey
📍 Locust Grove Trailhead, Glen Avenue, Millburn, NJ 07041
📞 N/A
🌐 https://www.essexcountyparks.org/parks/south-mountain-reservation
🔗 https://observer.com/list/best-hikes-near-new-york-city-no-cars/
ℹ️ South Mountain Reservation is a 2,000+ acre forest reservation laid out by the Olmsted Brothers—sons of Frederick Law Olmsted, who designed Central Park—and the carriage roads still hold their original logic a century on. The signature route is the **Lenape–Rahway loop**, running 5.9 miles with...</description>
      <Point>
        <coordinates>-74.2914908,40.725158,0</coordinates>
      </Point>
    </Placemark>
    <Placemark>
      <name>Blooming Hill Farm (Monroe, NY)</name>
      <description>Blooming Hill Farm - Monroe, NY
📍 1251 State Route 208, Monroe, NY 10950
📞 845.238.5004 (Restaurant &amp; Events), 845.782.7310 (Farmstand)
🌐 https://www.bloominghill.farm/
🔗 https://www.instagram.com/p/DNgxhXOu__u/?img_index=1
ℹ️ Blooming Hill Farm is an organic farm and farm-to-table restaurant located 60 miles north of NYC. This small, family owned and operated farm grows over 150 varieties of organic fruits and vegetables which they cook at their restaurant and sell at their farm stand. They focus on sustainable farming...</description>
      <Point>
        <coordinates>-74.1866348,41.3304767,0</coordinates>
      </Point>
    </Placemark>
    <Placemark>
      <name>Scandinavia House: The Nordic Center in America (Murray Hill, Manhattan)</name>
      <description>Scandinavia House: The Nordic Center in America - Murray Hill, Manhattan
📍 58 Park Avenue, New York, NY 10016
📞 (212) 779-3587
🌐 https://www.scandinaviahouse.org/
🔗 https://www.instagram.com/p/DVL38qyDfqY/
ℹ️ Scandinavia House is the Nordic cultural center in America, showcasing Scandinavian art, design, and culture. The center features galleries, films, concerts, and other cultural programs celebrating Nordic heritage. Located just 4 blocks south of Grand Central Station. Featured in a list of...</description>
      <Point>
        <coordinates>-73.9801,40.7495,0</coordinates>
      </Point>
    </Placemark>
    <Placemark>
      <name>Storm King Art Center (New Windsor)</name>
      <description>Storm King Art Center - New Windsor
📍 1 Museum Rd, New Windsor, NY 12553
📞 (845) 534-3115
🌐 https://stormking.org
🔗 https://www.instagram.com/p/DTxh5rcDRnY/?img_index=1
ℹ️ Storm King Art Center is a 500-acre outdoor museum located in New York's Hudson Valley, where visitors experience large-scale sculpture and site-specific commissions under open sky. It contains perhaps the largest collection of contemporary outdoor sculptures in the United States.</description>
      <Point>
        <coordinates>-74.0625583,41.4234644,0</coordinates>
      </Point>
    </Placemark>
    <Placemark>
      <name>Hook Mountain and Nyack (Nyack, New York)</name>
      <description>Hook Mountain and Nyack - Nyack, New York
📍 698 North Broadway, Upper Nyack, NY 10960
📞 (845) 268-3020
🌐 https://parks.ny.gov/parks/nyackbeach
🔗 https://observer.com/list/best-hikes-near-new-york-city-no-cars/
ℹ️ A 5.9-mile loop over **Hook Mountain**, the 730-foot diabase prow that anchors the northern Palisades and is a federally registered **National Natural Landmark**. Twelve thousand raptors a year ride the thermals through the summit's hawk-watch site, and the **Knickerbocker Ice Company ruins** line...</description>
      <Point>
        <coordinates>-73.9149807,41.1188787,0</coordinates>
      </Point>
    </Placemark>
    <Placemark>
      <name>The Palisades Long Path (George Washington Bridge to Alpine Lookout, New Jersey)</name>
      <description>The Palisades Long Path - George Washington Bridge to Alpine Lookout, New Jersey
📍 GWB Northwalk entrance, 178th Street and Cabrini Boulevard, New York, NY 10033
📞 N/A
🌐 https://www.njpalisades.org/longPath.html
🔗 https://observer.com/list/best-hikes-near-new-york-city-no-cars/
ℹ️ The Long Path rolls north along the Palisades cliff edge through active peregrine falcon country. From the GWB it climbs into 200-million-year-old diabase, passing **Rockefeller Lookout** at about 4.85 miles and **Alpine Lookout** at roughly eight miles. The hike ends at the **Alpine Boat Basin**,...</description>
      <Point>
        <coordinates>-73.9526661,40.8516669,0</coordinates>
      </Point>
    </Placemark>
    <Placemark>
      <name>Hudson Valley MOCA (Peekskill)</name>
      <description>Hudson Valley MOCA - Peekskill
📍 1701 Main Street, Peekskill, NY 10566
📞 (914) 788-0100
🌐 https://www.hudsonvalleymoca.org
🔗 https://www.instagram.com/p/DTxh5rcDRnY/?img_index=1
ℹ️ The Hudson Valley Center for Contemporary Art (Hudson Valley MOCA), located in Peekskill, NY, is a 501(c)(3) non-profit arts and education organization founded by the Marc and Livia Straus family. The Center is dedicated to the development and presentation of exhibitions and interdisciplinary...</description>
      <Point>
        <coordinates>-73.906835,41.2932806,0</coordinates>
      </Point>
    </Placemark>
    <Placemark>
      <name>The Barnes Foundation (Philadelphia, PA)</name>
      <description>The Barnes Foundation - Philadelphia, PA
📍 2025 Benjamin Franklin Parkway, Philadelphia, PA 19130
📞 215-278-7000
🌐 https://www.barnesfoundation.org
🔗 https://www.tripadvisor.com/Attraction_Review-g60795-d3187840-Reviews-Barnes-Philadelphia_Pennsylvania.html
ℹ️ The Barnes Foundation was founded in 1922 by Dr. Albert C. Barnes, who made his fortune co-developing Argyrol, an antiseptic silver compound. Inspired by philosopher John Dewey's writings on education and democracy, Barnes chartered the foundation as an educational institution dedicated to teaching...</description>
      <Point>
        <coordinates>-75.1727,39.9605,0</coordinates>
      </Point>
    </Placemark>
    <Placemark>
      <name>Calder Gardens (Philadelphia, PA)</name>
      <description>Calder Gardens - Philadelphia, PA
📍 2100 Benjamin Franklin Parkway, Philadelphia, PA 19130
📞 215-278-7250
🌐 https://caldergardens.org
🔗 https://www.visitphilly.com/things-to-do/attractions/calder-gardens/
ℹ️ Calder Gardens is a geometric wonderland dedicated entirely to the work of Alexander Calder (1898-1976), one of the most acclaimed and influential artists of the 20th century and a native Philadelphian. Spanning his entire 50-year career, the attraction features rotating selections of kinetic...</description>
      <Point>
        <coordinates>-75.1748,39.9603,0</coordinates>
      </Point>
    </Placemark>
    <Placemark>
      <name>Thunderbird Salvage (Philadelphia)</name>
      <description>Thunderbird Salvage - Philadelphia
📍 2441 Frankford Ave, Philadelphia, PA 19125
📞 N/A (DM on Instagram to inquire)
🌐 linktr.ee/thunderbirdsalvage
🔗 https://www.instagram.com/p/DQcAfSJEU4W/
ℹ️ Thunderbird Salvage is a vintage/salvage store in Philadelphia that specializes in new, used, vintage, eclectic, and salvage items. The store prides itself on salvaging as much as possible from cleanouts in the Philadelphia area. They describe it as &quot;a hard business to be in when so much goes to...</description>
      <Point>
        <coordinates>-75.126122,39.982826,0</coordinates>
      </Point>
    </Placemark>
    <Placemark>
      <name>Frances Lehman Loeb Art Center (Poughkeepsie)</name>
      <description>Frances Lehman Loeb Art Center - Poughkeepsie
📍 124 Raymond Ave, Vassar College, Poughkeepsie, NY 12604
📞 (845) 437-5237
🌐 https://www.vassar.edu/theloeb
🔗 https://www.instagram.com/p/DTxh5rcDRnY/?img_index=1
ℹ️ The Frances Lehman Loeb Art Center, commonly known as the Loeb, is a teaching museum, major art repository, and exhibition space on the campus of Vassar College in Poughkeepsie, New York. It was founded in 1864 as the Vassar College Art Gallery and displays works from antiquity to contemporary...</description>
      <Point>
        <coordinates>-73.8975068,41.6859969,0</coordinates>
      </Point>
    </Placemark>
    <Placemark>
      <name>Walkway Over the Hudson (Poughkeepsie, New York)</name>
      <description>Walkway Over the Hudson - Poughkeepsie, New York
📍 87 Haviland Road, Highland, NY 12528 (west landing)
📞 (845) 834-2867
🌐 https://walkway.org/
🔗 https://observer.com/list/best-hikes-near-new-york-city-no-cars/
ℹ️ Walkway Over the Hudson is 1.28 miles of repurposed 1888 railroad bridge, opening 212 feet above the river—&quot;the laziest legitimate hike on this list, because the bridge does all the climbing for you.&quot; The **Hyde Park Trail** strings together nine miles of woodland between the FDR estates, doable in...</description>
      <Point>
        <coordinates>-73.954303,41.7106541,0</coordinates>
      </Point>
    </Placemark>
    <Placemark>
      <name>Eastern Queens Greenway (Queens)</name>
      <description>Eastern Queens Greenway - Queens
📍 Starts at Main Street-Flushing (7 train)
📞 N/A
🌐 https://www.nycgovparks.org/sub_things_to_do/facilities/images/Brooklyn_Queens_GreenwayGuide.pdf
🔗 https://www.nytimes.com/interactive/2019/08/14/nyregion/hiking-nyc.html
ℹ️ A nearly 15-mile section of the Brooklyn-Queens Greenway that preserves Queens' bucolic farming past from the early 1900s. The trail starts in Flushing and ends with photo-ready views of the Throgs Neck Bridge. It passes through residential streets and dense parkland, including a canopied walk...</description>
      <Point>
        <coordinates>-73.8251866,40.7472567,0</coordinates>
      </Point>
    </Placemark>
    <Placemark>
      <name>Lanoba Design (Red Hook)</name>
      <description>Lanoba Design - Red Hook
📍 481 Van Brunt St 8A, New York, NY 11231
📞 347 284 9992
🌐 www.lanobadesign.com
🔗 https://www.instagram.com/p/DLutg0gOAZQ/
ℹ️ Lanoba Design is a vintage Danish modern furniture store specializing in authentic mid-century pieces from the 1940s and 1950s. The business features an impressive 8,000 square foot showroom in Red Hook, Brooklyn, showcasing refurbished and &quot;AS IS&quot; vintage Danish furniture. The company sources all...</description>
      <Point>
        <coordinates>-74.0168886,40.6737155,0</coordinates>
      </Point>
    </Placemark>
    <Placemark>
      <name>Waterfront Museum (New York City)</name>
      <description>Waterfront Museum - New York City
📍 290 Conover Street, Brooklyn, NY 11231
📞 (718) 624-4719
🌐 https://waterfrontmuseum.org
🔗 https://www.instagram.com/p/DYfV0pRGUBQ/?img_index=1
ℹ️ The Waterfront Museum is housed aboard the Lehigh Valley Barge #79, a wooden covered barge built in 1914 and now docked in Red Hook, Brooklyn. The floating museum preserves maritime history through artifacts and oral histories from longshoremen and harbor workers, while hosting cultural programming...</description>
      <Point>
        <coordinates>-74.0182882,40.6752578,0</coordinates>
      </Point>
    </Placemark>
    <Placemark>
      <name>Community Boathouse (Rockaway Beach, Queens)</name>
      <description>Community Boathouse - Rockaway Beach, Queens
📍 Vernam Barbadoes Preserve, Corner of Beach 75th St. &amp; Amstel Blvd, Far Rockaway, NY 11692
📞 N/A (contact via email)
🌐 https://www.communityboathouse.org/
🔗 https://www.communityboathouse.org/
ℹ️ The Community Boathouse (formerly the Gateway Bike &amp; Boathouse, founded in 2008) is a 501(c)3 not-for-profit, all-volunteer organization providing **free kayaking on Jamaica Bay** in Rockaway Beach and at Riis Landing. Visitors can experience the natural beauty of the Bay while enjoying fresh air...</description>
      <Point>
        <coordinates>-73.8058514,40.5938374,0</coordinates>
      </Point>
    </Placemark>
    <Placemark>
      <name>Sandy Hook Beach Ferry Day Trip (Seastreak) (Sandy Hook, NJ)</name>
      <description>Sandy Hook Beach Ferry Day Trip (Seastreak) - Sandy Hook, NJ
📍 Sandy Hook Ferry Dock, Fort Hancock, Sandy Hook Unit, Gateway National Recreation Area, Highlands, NJ 07732
📞 +1 800-262-8743 (Seastreak); +1 732-872-5970 (Sandy Hook / Gateway NRA)
🌐 https://seastreak.com/ferry-routes-and-schedules/between-new-york-city-sandy-hook-beach-nj/
🔗 https://www.instagram.com/p/DY4eMsfNfP6/
ℹ️ A car-free NYC summer beach day trip: hop the Seastreak ferry from Manhattan (East 35th Street or Pier 11/Wall Street) and ride roughly 40 minutes across New York Harbor and Sandy Hook Bay to Sandy Hook, the northern barrier-beach peninsula of Gateway National Recreation Area in New Jersey. The...</description>
      <Point>
        <coordinates>-74.0093,40.4686,0</coordinates>
      </Point>
    </Placemark>
    <Placemark>
      <name>Rockefeller State Park Preserve (Westchester County, New York)</name>
      <description>Rockefeller State Park Preserve - Westchester County, New York
📍 125 Phelps Way (Route 117), Pleasantville / Sleepy Hollow, NY 10570
📞 (914) 631-1470 (NY State Parks)
🌐 https://parks.ny.gov/parks/rockefeller
🔗 https://www.nationalgeographic.com/travel/article/new-york-city-train-to-hiking-trails
ℹ️ Featured in National Geographic's &quot;6 spectacular hikes near New York City—and you can reach them by train&quot; (by Lina Zeldovich). Rockefeller State Park Preserve offers roughly **55 miles of wide, easy-to-moderate carriage road trails** on former Rockefeller family land in Westchester's Pocantico...</description>
      <Point>
        <coordinates>-73.8309454,41.1077178,0</coordinates>
      </Point>
    </Placemark>
    <Placemark>
      <name>Cooper's Beach (Southampton, NY)</name>
      <description>Cooper's Beach - Southampton, NY
📍 268 Meadow Lane, Southampton, NY 11968
📞 (631) 283-0247
🌐 http://www.southamptonvillage.org/Facilities/Facility/Details/Coopers-Beach-6
🔗 https://www.instagram.com/p/DMdIT6sOyQV/
ℹ️ Cooper's Beach is a premier beach destination located on the south shore of Long Island in Southampton, New York. The beach was named the #1 beach in America for 2025 by Dr. Beach (coastal scientist Stephen Leatherman), who has been ranking beaches across the United States for over three decades...</description>
      <Point>
        <coordinates>-72.4042757,40.8654425,0</coordinates>
      </Point>
    </Placemark>
    <Placemark>
      <name>New York Chinese Scholar's Garden (Staten Island)</name>
      <description>New York Chinese Scholar's Garden - Staten Island
📍 1000 Richmond Terrace, Staten Island, NY 10301 (Entrance at Cottage E on Cottage Row)
📞 (718) 425-3504
🌐 https://snug-harbor.org/botanical-garden/new-york-chinese-scholars-garden/
🔗 https://www.instagram.com/p/DVgS0xmDf6e/
ℹ️ The New York Chinese Scholar's Garden is one of only two authentic classical outdoor Chinese gardens built in the United States, located within the Snug Harbor Cultural Center &amp; Botanical Garden campus. Based on Ming Dynasty design (1368-1644 AD), it features eight pavilions, bamboo forests,...</description>
      <Point>
        <coordinates>-74.1019,40.6419,0</coordinates>
      </Point>
    </Placemark>
    <Placemark>
      <name>The Yellow Trail of Staten Island Greenbelt (Staten Island)</name>
      <description>The Yellow Trail of Staten Island Greenbelt - Staten Island
📍 Starts near Mall of Staten Island, ends at Todt Hill
📞 N/A
🌐 https://www.nycgovparks.org/sub_about/parks_divisions/nrg/forever_wild/pdf/fw-trailmap-20.pdf
🔗 https://www.nytimes.com/interactive/2019/08/14/nyregion/hiking-nyc.html
ℹ️ An eight-mile trail that joins a constellation of several parks and natural areas in the center of Staten Island, easily the greenest borough with a third of its acreage dedicated to parks. The adventurous Yellow Trail starts near the Mall of Staten Island and rises more than 400 feet to reach Todt...</description>
      <Point>
        <coordinates>-74.0980274,40.5979271,0</coordinates>
      </Point>
    </Placemark>
    <Placemark>
      <name>Stone Barns Center for Food &amp; Agriculture (Tarrytown, NY)</name>
      <description>Stone Barns Center for Food &amp; Agriculture - Tarrytown, NY
📍 630 Bedford Road, Tarrytown, NY 10591
📞 Contact via website
🌐 https://www.stonebarnscenter.org/
🔗 https://www.instagram.com/p/DNgxhXOu__u/?img_index=1
ℹ️ Stone Barns Center for Food &amp; Agriculture is a nonprofit farm, research, and education center founded in 2004 with a mission to catalyze an ecological food culture. Located on 80 acres formerly belonging to the Rockefeller estate, the center combines working farm operations with educational...</description>
      <Point>
        <coordinates>-73.8587461,41.0762077,0</coordinates>
      </Point>
    </Placemark>
    <Placemark>
      <name>The New York Historical (New York City)</name>
      <description>The New York Historical - New York City
📍 170 Central Park West (at 77th Street), New York, NY 10024
📞 (212) 873-3400
🌐 https://www.nyhistory.org
🔗 https://www.instagram.com/p/DYfV0pRGUBQ/?img_index=1
ℹ️ The New York Historical (formerly the New-York Historical Society) is New York City's oldest museum, founded in 1804, and is dedicated to both the history of the Big Apple and the United States. The museum features rotating art and history exhibitions — recent highlights include shows for America's...</description>
      <Point>
        <coordinates>-73.9743038,40.7792489,0</coordinates>
      </Point>
    </Placemark>
    <Placemark>
      <name>Nicholas Roerich Museum (New York City)</name>
      <description>Nicholas Roerich Museum - New York City
📍 319 West 107th Street, New York, NY 10025
📞 (212) 864-7752
🌐 https://www.roerich.org/
🔗 https://www.instagram.com/reel/DG30pkXt0Id/?igsh=dWE2MGpmbjVmNGJt
ℹ️ The Nicholas Roerich Museum is a hidden gem housed in a classic city brownstone on the Upper West Side of Manhattan. Dedicated to the works of Nicholas Roerich (1874–1947), a Russian-born cosmopolitan artist known as the &quot;master of mountains,&quot; the museum displays more than 200 of his paintings. The...</description>
      <Point>
        <coordinates>-73.9690126,40.8029241,0</coordinates>
      </Point>
    </Placemark>
    <Placemark>
      <name>Ashley Gorge Via Ferrata (Vernal, Utah)</name>
      <description>Ashley Gorge Via Ferrata - Vernal, Utah
📍 Ashley Gorge, approximately 12 miles north of Vernal, Utah
📞 435-790-6455 (Dyno Outfitters / Utah Via Ferrata)
🌐 https://www.utahviaferrata.com/via-ferrata
🔗 https://www.instagram.com/p/DVRem8qAIbI/
ℹ️ Set against the dramatic canyon walls of Ashley Gorge, this is Utah's very first public via ferrata and the longest via ferrata route in North America. Via ferrata (Italian for &quot;Iron Path&quot;) is a form of protected rock climbing using fixed cables, iron rungs, ladders, and metal footholds attached to...</description>
      <Point>
        <coordinates>-109.615,40.5596,0</coordinates>
      </Point>
    </Placemark>
    <Placemark>
      <name>Mountain Creek Resort (Vernon, NJ)</name>
      <description>Mountain Creek Resort - Vernon, NJ
📍 200 Route 94, Vernon, NJ 07462
📞 (973) 827-2000
🌐 https://mountaincreek.com/
🔗 https://www.instagram.com/p/DS2dIQEgLHv/
ℹ️ Mountain Creek Resort is New Jersey's premier 4-season resort destination located in Vernon Township. The resort has a rich and colorful history dating back to 1976 when Eugene Mulvihill and Great American Recreation opened a summer attraction on the grounds of the Vernon Valley/Great Gorge ski...</description>
      <Point>
        <coordinates>-74.51,41.1908,0</coordinates>
      </Point>
    </Placemark>
    <Placemark>
      <name>The Long Path (Upper Manhattan to Albany)</name>
      <description>The Long Path - Upper Manhattan to Albany
📍 West 175th Street near George Washington Bridge
📞 N/A
🌐 https://www.nynjtc.org/long-path/
🔗 https://www.instagram.com/p/DUEjKLPjM_F/?img_index=1</description>
      <Point>
        <coordinates>-73.9480689,40.850682,0</coordinates>
      </Point>
    </Placemark>
    <Placemark>
      <name>Wassaic Project (Wassaic)</name>
      <description>Wassaic Project - Wassaic
📍 37 Furnace Bank Road, Wassaic, NY 12592
📞 (347) 815-0783
🌐 https://www.wassaicproject.org
🔗 https://www.instagram.com/p/DTxh5rcDRnY/?img_index=1
ℹ️ The Wassaic Project is a non-profit artist-run arts, community and art education space in Wassaic, New York, founded in 2008. It is a contemporary arts institution dedicated to supporting emerging artists and engaging communities through residencies, exhibitions, public programs, and arts...</description>
      <Point>
        <coordinates>-73.5605459,41.805682,0</coordinates>
      </Point>
    </Placemark>
    <Placemark>
      <name>Belmont Lake State Park (West Babylon, New York)</name>
      <description>Belmont Lake State Park - West Babylon, New York
📍 625 Belmont Avenue, West Babylon, NY 11704
📞 (631) 667-5055 (NY State Parks)
🌐 https://parks.ny.gov/parks/belmontlake
🔗 https://www.nationalgeographic.com/travel/article/new-york-city-train-to-hiking-trails
ℹ️ Featured in National Geographic's &quot;6 spectacular hikes near New York City—and you can reach them by train&quot; (by Lina Zeldovich). Belmont Lake State Park is an easy, family-friendly hiking destination on Long Island. A 3.8-mile path connects **Belmont Lake** and **Argyle Lake** via flat, wooded...</description>
      <Point>
        <coordinates>-73.3445578,40.7341477,0</coordinates>
      </Point>
    </Placemark>
    <Placemark>
      <name>Living By Stella Dallas (Williamsburg)</name>
      <description>Living By Stella Dallas - Williamsburg
📍 281 N 6th St, Brooklyn, NY 11211
📞 Not listed
🌐 Not listed
🔗 https://www.instagram.com/reel/DS387lujiin
ℹ️ Living By Stella Dallas is a vintage and textile shop in Williamsburg specializing in vintage clothing, global textiles, and furnishing textiles. The shop carries women's clothing ranging from pieces dating back to the 1840s to current items, along with vintage buttons and sewing notions. The shop...</description>
      <Point>
        <coordinates>-73.9536014,40.7146296,0</coordinates>
      </Point>
    </Placemark>
    <Placemark>
      <name>Habitat NYC and Westchester ReStore (Yonkers, NY)</name>
      <description>Habitat NYC and Westchester ReStore - Yonkers, NY
📍 470 Nepperhan Ave, Yonkers, NY 10701
📞 (332) 777-5060
🌐 https://www.habitatnycwc.org/restore/
🔗 https://www.instagram.com/p/DTiQQ8_jvit/
ℹ️ The Habitat NYC and Westchester ReStore is a nonprofit thrift store operated by Habitat for Humanity New York City and Westchester County. The store sells donated furniture, home goods, building materials, appliances, and vintage finds at affordable prices. All proceeds support Habitat for...</description>
      <Point>
        <coordinates>-73.8835206,40.9422481,0</coordinates>
      </Point>
    </Placemark>
    <Placemark>
      <name>Hudson River Museum (Yonkers)</name>
      <description>Hudson River Museum - Yonkers
📍 511 Warburton Avenue, Yonkers, NY 10701
📞 (914) 963-4550
🌐 https://www.hrm.org
🔗 https://www.instagram.com/p/DTxh5rcDRnY/?img_index=1
ℹ️ The Hudson River Museum is situated on the banks of the Hudson River in Yonkers, New York. It is the largest cultural institution in Westchester County with galleries, planetarium, amphitheater, and educational spaces.</description>
      <Point>
        <coordinates>-73.8966053,40.9542326,0</coordinates>
      </Point>
    </Placemark>
    <Placemark>
      <name>Untermyer Gardens (Yonkers)</name>
      <description>Untermyer Gardens - Yonkers
📍 945 N Broadway
📞 (914) 613-4502
🌐 https://www.untermyergardens.org/
🔗 https://www.instagram.com/p/DKZcGDruc4J/, https://www.instagram.com/p/DR5S628ET_9/
ℹ️ Untermyer Gardens is a spectacular Persian-style garden that offers a magical escape just 35 minutes from NYC. This historic garden features stunning architecture, beautiful landscaping, and serves as a perfect day trip destination from Manhattan. The gardens were once part of a grand estate and...</description>
      <Point>
        <coordinates>-73.8860174,40.9659946,0</coordinates>
      </Point>
    </Placemark>
    <Placemark>
      <name>Bygone Icons (Long Island City, NY)</name>
      <description>Bygone Icons - Long Island City, NY
📍 42-33 24th Street, Long Island City, NY 11101
📞 +1 (212) 796-1920
🌐 https://bygoneicons.com/
🔗 https://www.instagram.com/p/DMJAMVpgs9o/
ℹ️ Bygone Icons is a warehouse-based vintage and high-end furniture retailer specializing in carefully curated pieces from over 65 renowned brands including Herman Miller, Eames, Knoll, Saarinen, USM Haller, Vitsoe, Walter Knoll, Vitra, Steelcase, Humanscale, Bernhardt, and Coalesse. They offer both...</description>
      <Point>
        <coordinates>-73.9421142,40.7500301,0</coordinates>
      </Point>
    </Placemark>
    <Placemark>
      <name>Watkins Glen Gorge Trail (Watkins Glen State Park)</name>
      <description>Watkins Glen Gorge Trail - Watkins Glen State Park
📍 1009 N Franklin St, Watkins Glen, NY 14891
📞 (607) 535-4511
🌐 https://parks.ny.gov/visit/state-parks/watkins-glen-state-park
🔗 https://www.instagram.com/p/DTg2QawjjRU/, https://www.instagram.com/p/DVWO2BaEXiV/
ℹ️ Watkins Glen State Park is the most famous of the Finger Lakes State Parks, renowned for leaving visitors spellbound. Within two miles, the glen's stream descends 400 feet past 200-foot cliffs, generating 19 waterfalls along its path. The Gorge Trail is a stone pathway carved straight into the...</description>
      <Point>
        <coordinates>-76.9288,42.3615,0</coordinates>
      </Point>
    </Placemark>
  </Document>
</kml>