<?xml version="1.0" ?>
<kml xmlns="http://www.opengis.net/kml/2.2">
  <Document>
    <name>NYC Restaurant Map</name>
    <description>Restaurant locations extracted from markdown files</description>
    <Placemark>
      <name>Cafe Harati (Bhaktapur - Primary)</name>
      <description>Cafe Harati - Bhaktapur (Primary)
📍 Taumadhi Square Near Nyatapola Temple, Bhaktapur 44800, Nepal
📞 +977 1-6610346
🔗 https://www.tripadvisor.com/Restaurant_Review-g424934-d32807326-Reviews-Cafe_Harati-Bhaktapur_Kathmandu_Valley_Bagmati_Zone_Central_Region.html
⭐ Signature Items:
• Sikarni: Sweet yogurt pots with cinnamon
• Yogurt: Described by one reviewer as &quot;the best yogurt in the world&quot; (Bhaktapur is famous for its juju dhau/king yogurt)</description>
      <Point>
        <coordinates>85.42914,27.671167,0</coordinates>
      </Point>
    </Placemark>
    <Placemark>
      <name>Newa Lahana (Bhaktapur - Primary)</name>
      <description>Newa Lahana - Bhaktapur (Primary)
📍 Sukuldhoka, Bhaktapur, Nepal
📞 01-6620770
🔗 https://www.instagram.com/newalahana.bkt/
⭐ Signature Items:
• Lahana Masala: House specialty (featured in Instagram highlights)
• Samay Baji Set: Traditional Newari feast platter
• Choila: Spiced meat preparation</description>
      <Point>
        <coordinates>85.4305234,27.6721722,0</coordinates>
      </Point>
    </Placemark>
    <Placemark>
      <name>Restaurant Tusa (Bhaktapur, Nepal - Primary)</name>
      <description>Restaurant Tusa - Bhaktapur, Nepal (Primary)
📍 Naagpokhari 6, Bhaktapur 44800, Nepal
📞 —
🔗 https://www.tripadvisor.com/Restaurant_Review-g424934-d32683060-Reviews-Restaurant_Tusa-Bhaktapur_Kathmandu_Valley_Bagmati_Zone_Central_Region.html
⭐ Signature Items:
• Fermented Potato and Millet Roti: with charred garlic and tomato chutney
• Batuk Chukauni: Magar lentil dish with yogurt-based potato achar
• Jackfruit Skewer: with tamarind-mustard glaze</description>
      <Point>
        <coordinates>85.47233,27.70496,0</coordinates>
      </Point>
    </Placemark>
    <Placemark>
      <name>Bagaichā (Kathmandu - Primary)</name>
      <description>Bagaichā - Kathmandu (Primary)
📍 Thirbak Sadak, Ward No.4, Kathmandu 44600 Nepal
📞 +977 980-1359919
🔗 https://www.tripadvisor.com/Restaurant_Review-g293890-d26562178-Reviews-Bagaicha-Kathmandu_Kathmandu_Valley_Bagmati_Zone_Central_Region.html</description>
      <Point>
        <coordinates>85.331566,27.720366,0</coordinates>
      </Point>
    </Placemark>
    <Placemark>
      <name>Carpe Diem Lounge &amp; Bakery (Kathmandu - Primary)</name>
      <description>Carpe Diem Lounge &amp; Bakery - Kathmandu (Primary)
📍 Paknajol 16 Kaldhara, Zostel Kathmandu, Kathmandu 44600 Nepal
📞 +977 1-4389042
🔗 https://www.tripadvisor.com/Restaurant_Review-g293890-d13157284-Reviews-Carpe_Diem_Lounge_Bakery-Kathmandu_Kathmandu_Valley_Bagmati_Zone_Central_Region.html</description>
      <Point>
        <coordinates>85.30795,27.717117,0</coordinates>
      </Point>
    </Placemark>
    <Placemark>
      <name>Jasper Restaurant (Kathmandu - Primary)</name>
      <description>Jasper Restaurant - Kathmandu (Primary)
📍 P876, Thabahi Rd, Kathmandu 44600 Nepal
📞 +977 980-3050739
🔗 https://www.tripadvisor.com/Restaurant_Review-g293890-d25436401-Reviews-Jasper_Restaurant-Kathmandu_Kathmandu_Valley_Bagmati_Zone_Central_Region.html</description>
      <Point>
        <coordinates>85.311905,27.714182,0</coordinates>
      </Point>
    </Placemark>
    <Placemark>
      <name>Jimbu Thakali By Capital Grill (Kalimati - Kathmandu - Primary)</name>
      <description>Jimbu Thakali By Capital Grill - Kalimati - Kathmandu (Primary)
📍 Ganeshman Singh Rd, Kathmandu 44600 Nepal
📞 +977 1-5922559
🔗 https://www.tripadvisor.com/Restaurant_Review-g293890-d30526592-Reviews-Jimbu_Thakali_By_Capital_Grill_Kalimati-Kathmandu_Kathmandu_Valley_Bagmati_Zone_.html
⭐ Signature Items:
• Thakali Set/Thaali: The signature wholesome Thakali set meal</description>
      <Point>
        <coordinates>85.32217,27.710316,0</coordinates>
      </Point>
    </Placemark>
    <Placemark>
      <name>Jimbu Thakali By Capital Grill (New Baneshwor Branch - Kathmandu - Primary)</name>
      <description>Jimbu Thakali By Capital Grill - New Baneshwor Branch - Kathmandu (Primary)
📍 Min Bhawan, Kathmandu 44600 Nepal
📞 +977 1-4622423
🔗 https://www.tripadvisor.com/Restaurant_Review-g293890-d24150632-Reviews-Jimbu_Thakali_By_Capital_Grill_New_Baneshwor_Branch-Kathmandu_Kathmandu_Valley_B.html</description>
      <Point>
        <coordinates>85.34074,27.687351,0</coordinates>
      </Point>
    </Placemark>
    <Placemark>
      <name>Lavie Garden (Kathmandu - Primary)</name>
      <description>Lavie Garden - Kathmandu (Primary)
📍 Phulbari Road, Kathmandu 44600 Nepal
📞 +977 980-8996175
🔗 https://www.tripadvisor.com/Restaurant_Review-g293890-d17433340-Reviews-Lavie_Garden-Kathmandu_Kathmandu_Valley_Bagmati_Zone_Central_Region.html</description>
      <Point>
        <coordinates>85.36437,27.726397,0</coordinates>
      </Point>
    </Placemark>
    <Placemark>
      <name>Nectar By Carpediem (Kathmandu - Primary)</name>
      <description>Nectar By Carpediem - Kathmandu (Primary)
📍 Phoolbari Galli Paknajol Marg Ward 16, Kathmandu 44600 Nepal
📞 +977 1-4389042
🔗 https://www.tripadvisor.com/Restaurant_Review-g293890-d25254918-Reviews-Nectar_By_Carpediem-Kathmandu_Kathmandu_Valley_Bagmati_Zone_Central_Region.html</description>
      <Point>
        <coordinates>85.308105,27.71714,0</coordinates>
      </Point>
    </Placemark>
    <Placemark>
      <name>Nepalaya Rooftop Restaurant (Kathmandu - Primary)</name>
      <description>Nepalaya Rooftop Restaurant - Kathmandu (Primary)
📍 Thamel, Kwabahal 17 Hotel Nepalaya, Kathmandu 44600 Nepal
📞 +977 1-5901321
🔗 https://www.tripadvisor.com/Restaurant_Review-g293890-d12071561-Reviews-Nepalaya_Rooftop_Restaurant-Kathmandu_Kathmandu_Valley_Bagmati_Zone_Central_Regi.html</description>
      <Point>
        <coordinates>85.31131,27.711996,0</coordinates>
      </Point>
    </Placemark>
    <Placemark>
      <name>The Chimney Restaurant (Kathmandu - Primary)</name>
      <description>The Chimney Restaurant - Kathmandu (Primary)
📍 Lal Durbar Durbar Marg, Hotel Yak and Yeti, Kathmandu 44600 Nepal
📞 +977 1-4248999
🔗 https://www.tripadvisor.com/Restaurant_Review-g293890-d1123614-Reviews-The_Chimney_Restaurant-Kathmandu_Kathmandu_Valley_Bagmati_Zone_Central_Region.html
⭐ Signature Items:
• Smoked Bekti: All-time favorite
• Chicken a la Kiev: Classic signature dish
• Baked Alaska Sagarmatha: Flaming dessert, named after Mt. Everest</description>
      <Point>
        <coordinates>85.32009,27.711342,0</coordinates>
      </Point>
    </Placemark>
    <Placemark>
      <name>Yala Cafe (Kathmandu - Primary)</name>
      <description>Yala Cafe - Kathmandu (Primary)
📍 Thamel-17 Kawabahal St, Kathmandu 44600 Nepal
📞 +977 980-1169212
🔗 https://www.tripadvisor.com/Restaurant_Review-g293890-d13625935-Reviews-Yala_Cafe-Kathmandu_Kathmandu_Valley_Bagmati_Zone_Central_Region.html</description>
      <Point>
        <coordinates>85.31145,27.71232,0</coordinates>
      </Point>
    </Placemark>
    <Placemark>
      <name>Mithila Thali by Chef Santosh Shah (Lalitpur - Primary)</name>
      <description>Mithila Thali by Chef Santosh Shah - Lalitpur (Primary)
📍 Jhamsikhel Road, Lalitpur 44700, Nepal
📞 +977 970 521 5000
🔗 https://www.tripadvisor.com/Restaurant_Review-g315764-d32972702-Reviews-Mithila_Thali_By_Chef_Santosh_Shah-Patan_Lalitpur_Kathmandu_Valley_Bagmati_Zone_.html
⭐ Signature Items:
• Daily Diet Thali: Rs 550; includes chokha, rice, ghee roti, taruwa, tilauri, salad, and Tawa fish from Janakpur
• Ghee Roti: Traditional clarified butter bread
• Taruwa: Deep-fried Mithila delicacy
🔥 Popular Items:
• Dhuska: Traditional Mithila fried bread
• Bagiya: Steamed rice flour dumpling
• Aloo Chokha: Mashed spiced potato</description>
      <Point>
        <coordinates>85.313126,27.67586,0</coordinates>
      </Point>
    </Placemark>
    <Placemark>
      <name>Mithila Thali by Chef Santosh Shah (Gairidhara, Kathmandu)</name>
      <description>Mithila Thali by Chef Santosh Shah - Gairidhara, Kathmandu
📍 Gairidhara Rd, Kathmandu
📞 +977 970 521 5000
🔗 https://www.tripadvisor.com/Restaurant_Review-g315764-d32972702-Reviews-Mithila_Thali_By_Chef_Santosh_Shah-Patan_Lalitpur_Kathmandu_Valley_Bagmati_Zone_.html
⭐ Signature Items:
• Daily Diet Thali: Rs 550; includes chokha, rice, ghee roti, taruwa, tilauri, salad, and Tawa fish from Janakpur
• Ghee Roti: Traditional clarified butter bread
• Taruwa: Deep-fried Mithila delicacy
🔥 Popular Items:
• Dhuska: Traditional Mithila fried bread
• Bagiya: Steamed rice flour dumpling
• Aloo Chokha: Mashed spiced potato</description>
      <Point>
        <coordinates>85.3278,27.7177,0</coordinates>
      </Point>
    </Placemark>
    <Placemark>
      <name>Mithila Thali by Chef Santosh Shah (Janakpur (Original Location))</name>
      <description>Mithila Thali by Chef Santosh Shah - Janakpur (Original Location)
📍 Janakpur, Nepal
📞 +977 970 521 5000
🔗 https://www.tripadvisor.com/Restaurant_Review-g315764-d32972702-Reviews-Mithila_Thali_By_Chef_Santosh_Shah-Patan_Lalitpur_Kathmandu_Valley_Bagmati_Zone_.html
⭐ Signature Items:
• Daily Diet Thali: Rs 550; includes chokha, rice, ghee roti, taruwa, tilauri, salad, and Tawa fish from Janakpur
• Ghee Roti: Traditional clarified butter bread
• Taruwa: Deep-fried Mithila delicacy
🔥 Popular Items:
• Dhuska: Traditional Mithila fried bread
• Bagiya: Steamed rice flour dumpling
• Aloo Chokha: Mashed spiced potato</description>
      <Point>
        <coordinates>85.9249,26.7285,0</coordinates>
      </Point>
    </Placemark>
    <Placemark>
      <name>Raithaane (Lalitpur, Nepal - Primary)</name>
      <description>Raithaane - Lalitpur, Nepal (Primary)
📍 Gaja Laxmi Marga, Saugal, Patan, Lalitpur 44707, Nepal
📞 +977-9801002971
🔗 https://www.atlasobscura.com/places/raithaane
⭐ Signature Items:
• Yangben Faksa: Curry made from pig meat, pig blood, and wild lichen (yangben); a delicacy of the Limbu community from eastern Nepal
• Rikikur: Sherpa potato pancake with yak butter, yak whey, scallion, and yogurt sauce
• Kanchemba: Thakali buckwheat chips with timmur chop</description>
      <Point>
        <coordinates>85.3270058,27.6716121,0</coordinates>
      </Point>
    </Placemark>
    <Placemark>
      <name>The Village Cafe (Lalitpur, Nepal - Primary)</name>
      <description>The Village Cafe - Lalitpur, Nepal (Primary)
📍 Jhamsikhel Marga, Patan (Lalitpur) 44601, Nepal
📞 +977 1-5540712
🔗 https://www.tripadvisor.com/Restaurant_Review-g315764-d3198300-Reviews-The_Village_Cafe-Patan_Lalitpur_Kathmandu_Valley_Bagmati_Zone_Central_Region.html
⭐ Signature Items:
• Cheese Pakoda: Rs 90 for five pieces; described as &quot;the best thing on the menu&quot;
• Chatamari: Egg (Rs 60) or Peanut Butter (Rs 90); Newari rice crepe
• Chicken Chhwela: Rs 150; spiced grilled meat, a Newari classic</description>
      <Point>
        <coordinates>85.3162991,27.6783964,0</coordinates>
      </Point>
    </Placemark>
    <Placemark>
      <name>Yala 3G Honacha (Lalitpur - Primary)</name>
      <description>Yala 3G Honacha - Lalitpur (Primary)
📍 Behind Krishna Mandir, Patan Durbar Square, Patko, Lalitpur 44700, Nepal
📞 +977 984-1460984
🔗 https://www.instagram.com/yala3ghonacha/?hl=en
⭐ Signature Items:
• Chatamari: Traditional Newari savory crepe (rice flour base with toppings)
• Haku Choila: Spiced buffalo meat, a Newari delicacy
• Syapumhicha: Newari leaf/vegetable dish</description>
      <Point>
        <coordinates>85.325,27.6736,0</coordinates>
      </Point>
    </Placemark>
    <Placemark>
      <name>Yala 3G Honacha (Honacha II)</name>
      <description>Yala 3G Honacha - Honacha II
📍 Near Bhimsen Mandir, Patan Durbar Square area
📞 +977 984-1460984
🔗 https://www.instagram.com/yala3ghonacha/?hl=en
⭐ Signature Items:
• Chatamari: Traditional Newari savory crepe (rice flour base with toppings)
• Haku Choila: Spiced buffalo meat, a Newari delicacy
• Syapumhicha: Newari leaf/vegetable dish</description>
      <Point>
        <coordinates>85.3248,27.673,0</coordinates>
      </Point>
    </Placemark>
  </Document>
</kml>